CCSDS_OMM_VERS = 2.0
CREATION_DATE  = 
ORIGINATOR     = 

OBJECT_NAME    = STARLINK-34386
OBJECT_ID      = 2025-236L
CENTER_NAME    = EARTH
REF_FRAME      = TEME
TIME_SYSTEM    = UTC
MEAN_ELEMENT_THEORY = SGP/SGP4

EPOCH          = 2025-11-14T18:00:02.998944
MEAN_MOTION    = 15.49247726
ECCENTRICITY   = .0001555
INCLINATION    = 53.1597
RA_OF_ASC_NODE = 279.5932
ARG_OF_PERICENTER = 75.1333
MEAN_ANOMALY   = 190.1887

EPHEMERIS_TYPE = 0
CLASSIFICATION_TYPE = U
NORAD_CAT_ID   = 66096
ELEMENT_SET_NO = 999
REV_AT_EPOCH   = 537
BSTAR          = .18809E-2
MEAN_MOTION_DOT = .105355E-2
MEAN_MOTION_DDOT = 0

CCSDS_OMM_VERS = 2.0
CREATION_DATE  = 
ORIGINATOR     = 

OBJECT_NAME    = STARLINK-35613
OBJECT_ID      = 2025-236M
CENTER_NAME    = EARTH
REF_FRAME      = TEME
TIME_SYSTEM    = UTC
MEAN_ELEMENT_THEORY = SGP/SGP4

EPOCH          = 2025-11-14T18:00:02.998944
MEAN_MOTION    = 15.49277554
ECCENTRICITY   = .0001681
INCLINATION    = 53.1597
RA_OF_ASC_NODE = 279.5855
ARG_OF_PERICENTER = 95.3388
MEAN_ANOMALY   = 173.8324

EPHEMERIS_TYPE = 0
CLASSIFICATION_TYPE = U
NORAD_CAT_ID   = 66097
ELEMENT_SET_NO = 999
REV_AT_EPOCH   = 537
BSTAR          = .61908E-3
MEAN_MOTION_DOT = .34095E-3
MEAN_MOTION_DDOT = 0

CCSDS_OMM_VERS = 2.0
CREATION_DATE  = 
ORIGINATOR     = 

OBJECT_NAME    = STARLINK-34206
OBJECT_ID      = 2025-236N
CENTER_NAME    = EARTH
REF_FRAME      = TEME
TIME_SYSTEM    = UTC
MEAN_ELEMENT_THEORY = SGP/SGP4

EPOCH          = 2025-11-14T18:00:02.998944
MEAN_MOTION    = 15.49291386
ECCENTRICITY   = .0001697
INCLINATION    = 53.1598
RA_OF_ASC_NODE = 279.5816
ARG_OF_PERICENTER = 93.0838
MEAN_ANOMALY   = 178.0013

EPHEMERIS_TYPE = 0
CLASSIFICATION_TYPE = U
NORAD_CAT_ID   = 66098
ELEMENT_SET_NO = 999
REV_AT_EPOCH   = 536
BSTAR          = .15641E-4
MEAN_MOTION_DOT = .421E-5
MEAN_MOTION_DDOT = 0

CCSDS_OMM_VERS = 2.0
CREATION_DATE  = 
ORIGINATOR     = 

OBJECT_NAME    = STARLINK-34460
OBJECT_ID      = 2025-236P
CENTER_NAME    = EARTH
REF_FRAME      = TEME
TIME_SYSTEM    = UTC
MEAN_ELEMENT_THEORY = SGP/SGP4

EPOCH          = 2025-11-14T18:00:02.998944
MEAN_MOTION    = 15.49220200
ECCENTRICITY   = .0001601
INCLINATION    = 53.1597
RA_OF_ASC_NODE = 279.5896
ARG_OF_PERICENTER = 76.4040
MEAN_ANOMALY   = 190.8375

EPHEMERIS_TYPE = 0
CLASSIFICATION_TYPE = U
NORAD_CAT_ID   = 66099
ELEMENT_SET_NO = 999
REV_AT_EPOCH   = 537
BSTAR          = .2758E-2
MEAN_MOTION_DOT = .155544E-2
MEAN_MOTION_DDOT = 0

CCSDS_OMM_VERS = 2.0
CREATION_DATE  = 
ORIGINATOR     = 

OBJECT_NAME    = STARLINK-35609
OBJECT_ID      = 2025-236Q
CENTER_NAME    = EARTH
REF_FRAME      = TEME
TIME_SYSTEM    = UTC
MEAN_ELEMENT_THEORY = SGP/SGP4

EPOCH          = 2025-11-14T18:00:02.998944
MEAN_MOTION    = 15.49292649
ECCENTRICITY   = .0001755
INCLINATION    = 53.1598
RA_OF_ASC_NODE = 279.5771
ARG_OF_PERICENTER = 91.3482
MEAN_ANOMALY   = 181.6563

EPHEMERIS_TYPE = 0
CLASSIFICATION_TYPE = U
NORAD_CAT_ID   = 66100
ELEMENT_SET_NO = 999
REV_AT_EPOCH   = 531
BSTAR          = -.73698E-4
MEAN_MOTION_DOT = -.4543E-4
MEAN_MOTION_DDOT = 0

CCSDS_OMM_VERS = 2.0
CREATION_DATE  = 
ORIGINATOR     = 

OBJECT_NAME    = STARLINK-35595
OBJECT_ID      = 2025-236R
CENTER_NAME    = EARTH
REF_FRAME      = TEME
TIME_SYSTEM    = UTC
MEAN_ELEMENT_THEORY = SGP/SGP4

EPOCH          = 2025-11-14T18:00:02.998944
MEAN_MOTION    = 15.49292031
ECCENTRICITY   = .0001689
INCLINATION    = 53.1598
RA_OF_ASC_NODE = 279.5727
ARG_OF_PERICENTER = 93.5392
MEAN_ANOMALY   = 181.3810

EPHEMERIS_TYPE = 0
CLASSIFICATION_TYPE = U
NORAD_CAT_ID   = 66101
ELEMENT_SET_NO = 999
REV_AT_EPOCH   = 531
BSTAR          = -.28266E-4
MEAN_MOTION_DOT = -.2019E-4
MEAN_MOTION_DDOT = 0

CCSDS_OMM_VERS = 2.0
CREATION_DATE  = 
ORIGINATOR     = 

OBJECT_NAME    = STARLINK-35599
OBJECT_ID      = 2025-236S
CENTER_NAME    = EARTH
REF_FRAME      = TEME
TIME_SYSTEM    = UTC
MEAN_ELEMENT_THEORY = SGP/SGP4

EPOCH          = 2025-11-14T18:00:02.998944
MEAN_MOTION    = 15.49279195
ECCENTRICITY   = .0001735
INCLINATION    = 53.1598
RA_OF_ASC_NODE = 279.5697
ARG_OF_PERICENTER = 91.8547
MEAN_ANOMALY   = 184.9898

EPHEMERIS_TYPE = 0
CLASSIFICATION_TYPE = U
NORAD_CAT_ID   = 66102
ELEMENT_SET_NO = 999
REV_AT_EPOCH   = 531
BSTAR          = .4179E-3
MEAN_MOTION_DOT = .22837E-3
MEAN_MOTION_DDOT = 0

CCSDS_OMM_VERS = 2.0
CREATION_DATE  = 
ORIGINATOR     = 

OBJECT_NAME    = STARLINK-35622
OBJECT_ID      = 2025-236T
CENTER_NAME    = EARTH
REF_FRAME      = TEME
TIME_SYSTEM    = UTC
MEAN_ELEMENT_THEORY = SGP/SGP4

EPOCH          = 2025-11-14T18:00:02.998944
MEAN_MOTION    = 15.49278093
ECCENTRICITY   = .0001685
INCLINATION    = 53.1597
RA_OF_ASC_NODE = 279.5614
ARG_OF_PERICENTER = 92.0773
MEAN_ANOMALY   = 188.5978

EPHEMERIS_TYPE = 0
CLASSIFICATION_TYPE = U
NORAD_CAT_ID   = 66103
ELEMENT_SET_NO = 999
REV_AT_EPOCH   = 537
BSTAR          = .51363E-3
MEAN_MOTION_DOT = .2819E-3
MEAN_MOTION_DDOT = 0

CCSDS_OMM_VERS = 2.0
CREATION_DATE  = 
ORIGINATOR     = 

OBJECT_NAME    = STARLINK-35452
OBJECT_ID      = 2025-236U
CENTER_NAME    = EARTH
REF_FRAME      = TEME
TIME_SYSTEM    = UTC
MEAN_ELEMENT_THEORY = SGP/SGP4

EPOCH          = 2025-11-14T18:00:02.998944
MEAN_MOTION    = 15.49292741
ECCENTRICITY   = .0001732
INCLINATION    = 53.1597
RA_OF_ASC_NODE = 279.5652
ARG_OF_PERICENTER = 94.9146
MEAN_ANOMALY   = 183.8420

EPHEMERIS_TYPE = 0
CLASSIFICATION_TYPE = U
NORAD_CAT_ID   = 66104
ELEMENT_SET_NO = 999
REV_AT_EPOCH   = 537
BSTAR          = -.10472E-3
MEAN_MOTION_DOT = -.6265E-4
MEAN_MOTION_DDOT = 0

CCSDS_OMM_VERS = 2.0
CREATION_DATE  = 
ORIGINATOR     = 

OBJECT_NAME    = STARLINK-35561
OBJECT_ID      = 2025-236V
CENTER_NAME    = EARTH
REF_FRAME      = TEME
TIME_SYSTEM    = UTC
MEAN_ELEMENT_THEORY = SGP/SGP4

EPOCH          = 2025-11-14T18:00:02.998944
MEAN_MOTION    = 15.49287122
ECCENTRICITY   = .0001718
INCLINATION    = 53.1597
RA_OF_ASC_NODE = 279.5572
ARG_OF_PERICENTER = 89.4645
MEAN_ANOMALY   = 193.1244

EPHEMERIS_TYPE = 0
CLASSIFICATION_TYPE = U
NORAD_CAT_ID   = 66105
ELEMENT_SET_NO = 999
REV_AT_EPOCH   = 531
BSTAR          = .14894E-3
MEAN_MOTION_DOT = .7837E-4
MEAN_MOTION_DDOT = 0

CCSDS_OMM_VERS = 2.0
CREATION_DATE  = 
ORIGINATOR     = 

OBJECT_NAME    = STARLINK-35584
OBJECT_ID      = 2025-236W
CENTER_NAME    = EARTH
REF_FRAME      = TEME
TIME_SYSTEM    = UTC
MEAN_ELEMENT_THEORY = SGP/SGP4

EPOCH          = 2025-11-14T18:00:02.998944
MEAN_MOTION    = 15.49285590
ECCENTRICITY   = .0001744
INCLINATION    = 53.1598
RA_OF_ASC_NODE = 279.5523
ARG_OF_PERICENTER = 92.9260
MEAN_ANOMALY   = 191.5791

EPHEMERIS_TYPE = 0
CLASSIFICATION_TYPE = U
NORAD_CAT_ID   = 66106
ELEMENT_SET_NO = 999
REV_AT_EPOCH   = 537
BSTAR          = .21856E-3
MEAN_MOTION_DOT = .11715E-3
MEAN_MOTION_DDOT = 0

CCSDS_OMM_VERS = 2.0
CREATION_DATE  = 
ORIGINATOR     = 

OBJECT_NAME    = STARLINK-35593
OBJECT_ID      = 2025-236X
CENTER_NAME    = EARTH
REF_FRAME      = TEME
TIME_SYSTEM    = UTC
MEAN_ELEMENT_THEORY = SGP/SGP4

EPOCH          = 2025-11-14T18:00:02.998944
MEAN_MOTION    = 15.49274132
ECCENTRICITY   = .0001818
INCLINATION    = 53.1597
RA_OF_ASC_NODE = 279.5485
ARG_OF_PERICENTER = 94.8166
MEAN_ANOMALY   = 191.6028

EPHEMERIS_TYPE = 0
CLASSIFICATION_TYPE = U
NORAD_CAT_ID   = 66107
ELEMENT_SET_NO = 999
REV_AT_EPOCH   = 537
BSTAR          = .77227E-3
MEAN_MOTION_DOT = .42685E-3
MEAN_MOTION_DDOT = 0

CCSDS_OMM_VERS = 2.0
CREATION_DATE  = 
ORIGINATOR     = 

OBJECT_NAME    = STARLINK-35590
OBJECT_ID      = 2025-236Y
CENTER_NAME    = EARTH
REF_FRAME      = TEME
TIME_SYSTEM    = UTC
MEAN_ELEMENT_THEORY = SGP/SGP4

EPOCH          = 2025-11-14T18:00:02.998944
MEAN_MOTION    = 15.49292628
ECCENTRICITY   = .0001709
INCLINATION    = 53.1596
RA_OF_ASC_NODE = 279.5406
ARG_OF_PERICENTER = 96.9552
MEAN_ANOMALY   = 193.2981

EPHEMERIS_TYPE = 0
CLASSIFICATION_TYPE = U
NORAD_CAT_ID   = 66108
ELEMENT_SET_NO = 999
REV_AT_EPOCH   = 531
BSTAR          = -.7304E-4
MEAN_MOTION_DOT = -.4506E-4
MEAN_MOTION_DDOT = 0

CCSDS_OMM_VERS = 2.0
CREATION_DATE  = 
ORIGINATOR     = 

OBJECT_NAME    = STARLINK-35545
OBJECT_ID      = 2025-236Z
CENTER_NAME    = EARTH
REF_FRAME      = TEME
TIME_SYSTEM    = UTC
MEAN_ELEMENT_THEORY = SGP/SGP4

EPOCH          = 2025-11-14T18:00:02.998944
MEAN_MOTION    = 15.49284261
ECCENTRICITY   = .0001665
INCLINATION    = 53.1598
RA_OF_ASC_NODE = 279.5442
ARG_OF_PERICENTER = 93.1839
MEAN_ANOMALY   = 195.1527

EPHEMERIS_TYPE = 0
CLASSIFICATION_TYPE = U
NORAD_CAT_ID   = 66109
ELEMENT_SET_NO = 999
REV_AT_EPOCH   = 537
BSTAR          = .29064E-3
MEAN_MOTION_DOT = .15734E-3
MEAN_MOTION_DDOT = 0

CCSDS_OMM_VERS = 2.0
CREATION_DATE  = 
ORIGINATOR     = 

OBJECT_NAME    = STARLINK-35427
OBJECT_ID      = 2025-236AA
CENTER_NAME    = EARTH
REF_FRAME      = TEME
TIME_SYSTEM    = UTC
MEAN_ELEMENT_THEORY = SGP/SGP4

EPOCH          = 2025-11-14T18:00:02.998944
MEAN_MOTION    = 15.49292927
ECCENTRICITY   = .0001679
INCLINATION    = 53.1597
RA_OF_ASC_NODE = 279.5358
ARG_OF_PERICENTER = 92.7458
MEAN_ANOMALY   = 199.4241

EPHEMERIS_TYPE = 0
CLASSIFICATION_TYPE = U
NORAD_CAT_ID   = 66110
ELEMENT_SET_NO = 999
REV_AT_EPOCH   = 537
BSTAR          = -.30562E-4
MEAN_MOTION_DOT = -.2147E-4
MEAN_MOTION_DDOT = 0

